OBJECT_NAME,OBJECT_ID,EPOCH,MEAN_MOTION,ECCENTRICITY,INCLINATION,RA_OF_ASC_NODE,ARG_OF_PERICENTER,MEAN_ANOMALY,EPHEMERIS_TYPE,CLASSIFICATION_TYPE,NORAD_CAT_ID,ELEMENT_SET_NO,REV_AT_EPOCH,BSTAR,MEAN_MOTION_DOT,MEAN_MOTION_DDOT
ONEWEB-0236,2021-045AG,2026-07-14T13:21:20.008512,13.15548649,.00021366,87.8984,253.7529,95.2283,264.9092,0,U,48797,999,24785,.20297325E-3,.89E-6,0
ONEWEB-0248,2021-045AH,2026-07-14T13:39:34.617888,13.15548971,.00024329,87.8994,253.7369,106.7764,253.3634,0,U,48798,999,24801,-.30173954E-3,-.101E-5,0
ONEWEB-0225,2021-045AJ,2026-07-14T14:11:31.953984,13.15547880,.00022377,87.8988,253.7392,112.9368,247.1998,0,U,48799,999,24802,-.13646839E-3,-.39E-6,0
ONEWEB-0215,2021-045AK,2026-07-14T13:28:09.927264,13.15549322,.00023835,87.8998,253.7289,114.9914,245.1464,0,U,48800,999,24789,.2438979E-4,.22E-6,0
ONEWEB-0216,2021-045AL,2026-07-14T13:41:52.017216,13.15548000,.00020109,87.8993,253.7410,97.5480,262.5879,0,U,48801,999,24790,-.23975966E-3,-.77E-6,0
ONEWEB-0239,2021-045AM,2026-07-14T13:48:42.896736,13.15547460,.00027346,87.8981,253.7443,111.8230,248.3192,0,U,48802,999,24794,-.36839101E-3,-.126E-5,0
ONEWEB-0249,2021-060A,2026-07-14T13:31:49.738368,13.16592779,.00021633,87.9079,223.3400,95.7173,264.4204,0,U,48967,999,24321,.72244739E-4,.4E-6,0
ONEWEB-0250,2021-060B,2026-07-14T15:02:39.776928,13.25835337,.00030808,87.9080,220.9944,86.9104,273.2385,0,U,48968,999,24385,-.7153964E-5,.1E-6,0
ONEWEB-0252,2021-060D,2026-07-14T14:16:19.073280,13.16595264,.0001847,87.9079,223.3262,96.3558,263.7784,0,U,48970,999,24326,.22471168E-3,.99E-6,0
ONEWEB-0253,2021-060E,2026-07-14T14:00:21.673152,13.16594862,.00022311,87.9079,223.3337,93.1411,266.9976,0,U,48971,999,24319,-.34582592E-4,0,0
ONEWEB-0254,2021-060F,2026-07-14T14:14:02.930208,13.16593684,.00023074,87.9080,223.3301,99.7080,260.4311,0,U,48972,999,24319,.86139143E-4,.46E-6,0
ONEWEB-0255,2021-060G,2026-07-14T13:19:19.782048,13.16593789,.00022145,87.9082,223.3435,99.1526,260.9855,0,U,48973,999,24326,-.15909177E-3,-.48E-6,0
ONEWEB-0256,2021-060H,2026-07-14T13:56:55.278240,13.16592658,.00018511,87.9075,223.3413,93.7104,266.4238,0,U,48974,999,24323,.23525958E-4,.22E-6,0
ONEWEB-0257,2021-060J,2026-07-14T14:43:41.110464,13.16593982,.00020319,87.9080,223.3234,99.1339,261.0022,0,U,48975,999,24319,-.24861632E-4,.3E-7,0
ONEWEB-0258,2021-060K,2026-07-14T14:45:57.910176,13.16594301,.00021138,87.9082,223.3351,95.5408,264.5965,0,U,48976,999,24320,.31234023E-3,.132E-5,0
ONEWEB-0259,2021-060L,2026-07-14T12:47:24.574848,13.16594318,.00022447,87.9080,223.3502,97.6241,262.5145,0,U,48977,999,24322,.43865886E-3,.181E-5,0
ONEWEB-0260,2021-060M,2026-07-14T14:24:16.793568,13.16595368,.00016806,87.9073,223.3375,94.3175,265.8148,0,U,48978,999,24321,.19020663E-3,.86E-6,0
ONEWEB-0261,2021-060N,2026-07-14T13:40:59.640672,13.16593722,.00020535,87.9077,223.3441,102.9824,257.1537,0,U,48979,999,24326,-.1049556E-3,-.27E-6,0
ONEWEB-0262,2021-060P,2026-07-14T15:01:55.481376,13.16593759,.00023746,87.9082,223.3192,97.3160,262.8240,0,U,48980,999,24323,-.23557196E-3,-.77E-6,0
ONEWEB-0263,2021-060Q,2026-07-14T13:58:05.058336,13.16593324,.00021842,87.9081,223.3401,102.6050,257.5325,0,U,48981,999,24319,-.13307071E-3,-.38E-6,0
ONEWEB-0264,2021-060R,2026-07-14T14:51:38.536128,13.16592916,.00019098,87.9073,223.3350,97.8715,262.2633,0,U,48982,999,24320,.23853497E-3,.104E-5,0
ONEWEB-0266,2021-060T,2026-07-14T13:32:59.450208,13.16595712,.00021221,87.9082,223.3371,91.7037,268.4337,0,U,48984,999,24318,-.53014422E-4,-.7E-7,0
ONEWEB-0267,2021-060U,2026-07-14T13:48:58.000320,13.16593941,.00020348,87.9079,223.3320,99.3719,260.7642,0,U,48985,999,24319,.12479086E-4,.18E-6,0
ONEWEB-0268,2021-060V,2026-07-14T14:52:48.244512,13.16593473,.00019428,87.9081,223.3319,93.8307,266.3046,0,U,48986,999,24346,.25829721E-3,.112E-5,0
ONEWEB-0269,2021-060W,2026-07-14T14:25:26.695488,13.16593445,.00019578,87.9071,223.3370,88.2849,271.8506,0,U,48987,999,24323,.33488504E-3,.141E-5,0
ONEWEB-0270,2021-060X,2026-07-14T14:50:30.197184,13.16593835,.00022631,87.9087,223.3343,100.0539,260.0848,0,U,48988,999,24327,.16812784E-3,.77E-6,0
ONEWEB-0271,2021-060Y,2026-07-14T14:32:17.243232,13.16594174,.00021117,87.9079,223.3264,100.4418,259.6951,0,U,48989,999,24327,.27449097E-3,.118E-5,0
ONEWEB-0272,2021-060Z,2026-07-14T15:04:11.817120,13.16595897,.00018278,87.9075,223.3325,99.3535,260.7803,0,U,48990,999,24322,-.2120381E-4,.5E-7,0
ONEWEB-0273,2021-060AA,2026-07-14T13:46:40.886976,13.16594206,.00021411,87.9074,223.3446,97.3645,262.7729,0,U,48991,999,24319,.43422989E-4,.29E-6,0
ONEWEB-0274,2021-060AB,2026-07-14T14:23:08.769984,13.16595536,.00017233,87.9070,223.3391,94.8142,265.3186,0,U,48992,999,24323,.3474975E-3,.146E-5,0
